start=new Date('2022-12-01T00:00:00.000Z').valueOf();
sats=[{"MEAN_ELEMENT_THEORY":"SGP4","EPHEMERIS_TYPE":"0","ARG_OF_PERICENTER":"64.9069","MEAN_MOTION_DOT":"0.00000368","BSTAR":"0.00004359100000","TLE_LINE2":"2 45052  53.0562 250.8493 0001784  64.9069 295.2105 15.06395325156357","ECCENTRICITY":"0.00017840","SITE":"AFETR","DECAY_DATE":null,"LAUNCH_DATE":"2020-01-29","PERIAPSIS":"545.992","MEAN_MOTION":"15.06395325","TLE_LINE1":"1 45052U 20006J   22334.76213253  .00000368  00000-0  43591-4 0  9990","GP_ID":"219212138","FILE":"3676429","RCS_SIZE":"LARGE","SEMIMAJOR_AXIS":"6925.363","MEAN_MOTION_DDOT":"0.0000000000000","APOAPSIS":"548.463","EPOCH":"2022-11-30T18:17:28.250592","CLASSIFICATION_TYPE":"U","NORAD_CAT_ID":"45052","ELEMENT_SET_NO":"999","REF_FRAME":"TEME","OBJECT_TYPE":"PAYLOAD","OBJECT_NAME":"STARLINK-1148","COUNTRY_CODE":"US","OBJECT_ID":"2020-006J","INCLINATION":"53.0562","PERIOD":"95.592","REV_AT_EPOCH":"15635","RA_OF_ASC_NODE":"250.8493","TIME_SYSTEM":"UTC","CENTER_NAME":"EARTH","MEAN_ANOMALY":"295.2105"},{"MEAN_ELEMENT_THEORY":"SGP4","EPHEMERIS_TYPE":"0","BSTAR":"0.00098844000000","MEAN_MOTION_DOT":"0.00021042","ARG_OF_PERICENTER":"111.0305","TLE_LINE2":"2 45053  52.9995 232.3458 0003881 111.0305 249.1105 15.19585281156544","ECCENTRICITY":"0.00038810","SITE":"AFETR","DECAY_DATE":null,"LAUNCH_DATE":"2020-01-29","PERIAPSIS":"504.423","MEAN_MOTION":"15.19585281","GP_ID":"219172083","TLE_LINE1":"1 45053U 20006K   22334.44826005  .00021042  00000-0  98844-3 0  9993","RCS_SIZE":"LARGE","FILE":"3675646","SEMIMAJOR_AXIS":"6885.230","MEAN_MOTION_DDOT":"0.0000000000000","APOAPSIS":"509.767","EPOCH":"2022-11-30T10:45:29.668320","CLASSIFICATION_TYPE":"U","NORAD_CAT_ID":"45053","ELEMENT_SET_NO":"999","OBJECT_TYPE":"PAYLOAD","REF_FRAME":"TEME","OBJECT_NAME":"STARLINK-1155","INCLINATION":"52.9995","COUNTRY_CODE":"US","OBJECT_ID":"2020-006K","RA_OF_ASC_NODE":"232.3458","CENTER_NAME":"EARTH","TIME_SYSTEM":"UTC","PERIOD":"94.763","REV_AT_EPOCH":"15654","MEAN_ANOMALY":"249.1105"},{"MEAN_ANOMALY":"300.5238","REV_AT_EPOCH":"15636","PERIOD":"95.592","RA_OF_ASC_NODE":"250.5791","TIME_SYSTEM":"UTC","CENTER_NAME":"EARTH","COUNTRY_CODE":"US","OBJECT_ID":"2020-006L","INCLINATION":"53.0557","OBJECT_NAME":"STARLINK-1156","REF_FRAME":"TEME","OBJECT_TYPE":"PAYLOAD","NORAD_CAT_ID":"45054","ELEMENT_SET_NO":"999","CLASSIFICATION_TYPE":"U","EPOCH":"2022-11-30T19:47:41.617536","APOAPSIS":"548.311","SEMIMAJOR_AXIS":"6925.350","MEAN_MOTION_DDOT":"0.0000000000000","FILE":"3676429","RCS_SIZE":"LARGE","TLE_LINE1":"1 45054U 20006L   22334.82478724  .00001662  00000-0  13045-3 0  9993","GP_ID":"219213128","MEAN_MOTION":"15.06399560","PERIAPSIS":"546.119","LAUNCH_DATE":"2020-01-29","DECAY_DATE":null,"SITE":"AFETR","ECCENTRICITY":"0.00015830","TLE_LINE2":"2 45054  53.0557 250.5791 0001583  59.5907 300.5238 15.06399560156362","BSTAR":"0.00013045000000","MEAN_MOTION_DOT":"0.00001662","ARG_OF_PERICENTER":"59.5907","EPHEMERIS_TYPE":"0","MEAN_ELEMENT_THEORY":"SGP4"},{"SITE":"AFETR","ECCENTRICITY":"0.00017760","LAUNCH_DATE":"2020-01-29","DECAY_DATE":null,"EPHEMERIS_TYPE":"0","MEAN_ELEMENT_THEORY":"SGP4","TLE_LINE2":"2 45057  53.0543 253.4963 0001776  55.5482 304.5674 15.06392304156278","BSTAR":"0.00003390600000","MEAN_MOTION_DOT":"0.00000223","ARG_OF_PERICENTER":"55.5482","TLE_LINE1":"1 45057U 20006P   22334.17606390  .00000223  00000-0  33906-4 0  9997","GP_ID":"219171583","RCS_SIZE":"LARGE","FILE":"3675646","PERIAPSIS":"546.007","MEAN_MOTION":"15.06392304","CLASSIFICATION_TYPE":"U","REF_FRAME":"TEME","OBJECT_TYPE":"PAYLOAD","ELEMENT_SET_NO":"999","NORAD_CAT_ID":"45057","APOAPSIS":"548.467","SEMIMAJOR_AXIS":"6925.372","MEAN_MOTION_DDOT":"0.0000000000000","EPOCH":"2022-11-30T04:13:31.920960","TIME_SYSTEM":"UTC","RA_OF_ASC_NODE":"253.4963","CENTER_NAME":"EARTH","PERIOD":"95.593","REV_AT_EPOCH":"15627","MEAN_ANOMALY":"304.5674","OBJECT_NAME":"STARLINK-1159","INCLINATION":"53.0543","OBJECT_ID":"2020-006P","COUNTRY_CODE":"US"},{"SITE":"AFETR","ECCENTRICITY":"0.00020810","LAUNCH_DATE":"2020-01-29","DECAY_DATE":null,"EPHEMERIS_TYPE":"0","MEAN_ELEMENT_THEORY":"SGP4","TLE_LINE2":"2 45058  53.0543 250.8517 0002081  61.1960 298.9237 15.06396364156360","BSTAR":"0.00036935000000","MEAN_MOTION_DOT":"0.00005224","ARG_OF_PERICENTER":"61.1960","TLE_LINE1":"1 45058U 20006Q   22334.76583391  .00005224  00000-0  36935-3 0  9998","GP_ID":"219212638","FILE":"3676429","RCS_SIZE":"LARGE","PERIAPSIS":"545.784","MEAN_MOTION":"15.06396364","CLASSIFICATION_TYPE":"U","OBJECT_TYPE":"PAYLOAD","REF_FRAME":"TEME","NORAD_CAT_ID":"45058","ELEMENT_SET_NO":"999","APOAPSIS":"548.666","MEAN_MOTION_DDOT":"0.0000000000000","SEMIMAJOR_AXIS":"6925.360","EPOCH":"2022-11-30T18:22:48.049824","RA_OF_ASC_NODE":"250.8517","TIME_SYSTEM":"UTC","CENTER_NAME":"EARTH","PERIOD":"95.592","REV_AT_EPOCH":"15636","MEAN_ANOMALY":"298.9237","OBJECT_NAME":"STARLINK-1162","INCLINATION":"53.0543","OBJECT_ID":"2020-006Q","COUNTRY_CODE":"US"},{"TLE_LINE2":"2 45059  53.0543 254.0258 0001400  63.1854 296.9278 15.06385693156251","MEAN_MOTION_DOT":"-0.00000990","ARG_OF_PERICENTER":"63.1854","BSTAR":"-0.00004758000000","EPHEMERIS_TYPE":"0","MEAN_ELEMENT_THEORY":"SGP4","LAUNCH_DATE":"2020-01-29","DECAY_DATE":null,"SITE":"AFETR","ECCENTRICITY":"0.00014000","MEAN_MOTION":"15.06385693","PERIAPSIS":"546.288","RCS_SIZE":"LARGE","FILE":"3675646","GP_ID":"219172584","TLE_LINE1":"1 45059U 20006R   22334.05811970 -.00000990  00000-0 -47580-4 0  9994","EPOCH":"2022-11-30T01:23:41.542080","APOAPSIS":"548.227","MEAN_MOTION_DDOT":"0.0000000000000","SEMIMAJOR_AXIS":"6925.392","REF_FRAME":"TEME","OBJECT_TYPE":"PAYLOAD","NORAD_CAT_ID":"45059","ELEMENT_SET_NO":"999","CLASSIFICATION_TYPE":"U","INCLINATION":"53.0543","OBJECT_ID":"2020-006R","COUNTRY_CODE":"US","OBJECT_NAME":"STARLINK-1165","MEAN_ANOMALY":"296.9278","RA_OF_ASC_NODE":"254.0258","TIME_SYSTEM":"UTC","CENTER_NAME":"EARTH","PERIOD":"95.593","REV_AT_EPOCH":"15625"},{"MEAN_ELEMENT_THEORY":"SGP4","EPHEMERIS_TYPE":"0","MEAN_MOTION_DOT":"-0.00003210","BSTAR":"-0.00019669000000","ARG_OF_PERICENTER":"51.1370","TLE_LINE2":"2 45060  53.0560 253.4454 0001659  51.1370 308.9766 15.06405477156270","ECCENTRICITY":"0.00016590","SITE":"AFETR","DECAY_DATE":null,"LAUNCH_DATE":"2020-01-29","PERIAPSIS":"546.048","MEAN_MOTION":"15.06405477","GP_ID":"219172331","TLE_LINE1":"1 45060U 20006S   22334.18712408 -.00003210  00000-0 -19669-3 0  9990","FILE":"3675646","RCS_SIZE":"LARGE","SEMIMAJOR_AXIS":"6925.332","MEAN_MOTION_DDOT":"0.0000000000000","APOAPSIS":"548.346","EPOCH":"2022-11-30T04:29:27.520512","CLASSIFICATION_TYPE":"U","NORAD_CAT_ID":"45060","ELEMENT_SET_NO":"999","REF_FRAME":"TEME","OBJECT_TYPE":"PAYLOAD","OBJECT_NAME":"STARLINK-1166","OBJECT_ID":"2020-006S","COUNTRY_CODE":"US","INCLINATION":"53.0560","PERIOD":"95.592","REV_AT_EPOCH":"15627","RA_OF_ASC_NODE":"253.4454","TIME_SYSTEM":"UTC","CENTER_NAME":"EARTH","MEAN_ANOMALY":"308.9766"},{"INCLINATION":"53.0548","COUNTRY_CODE":"US","OBJECT_ID":"2020-006T","OBJECT_NAME":"STARLINK-1169","MEAN_ANOMALY":"301.2548","RA_OF_ASC_NODE":"253.3956","CENTER_NAME":"EARTH","TIME_SYSTEM":"UTC","PERIOD":"95.593","REV_AT_EPOCH":"15627","EPOCH":"2022-11-30T04:40:04.629792","MEAN_MOTION_DDOT":"0.0000000000000","SEMIMAJOR_AXIS":"6925.374","APOAPSIS":"548.368","ELEMENT_SET_NO":"999","NORAD_CAT_ID":"45061","OBJECT_TYPE":"PAYLOAD","REF_FRAME":"TEME","CLASSIFICATION_TYPE":"U","MEAN_MOTION":"15.06391844","PERIAPSIS":"546.109","RCS_SIZE":"LARGE","FILE":"3675646","TLE_LINE1":"1 45061U 20006T   22334.19449803  .00000740  00000-0  68590-4 0  9999","GP_ID":"219171083","MEAN_MOTION_DOT":"0.00000740","ARG_OF_PERICENTER":"58.8601","BSTAR":"0.00006859000000","TLE_LINE2":"2 45061  53.0548 253.3956 0001631  58.8601 301.2548 15.06391844156270","MEAN_ELEMENT_THEORY":"SGP4","EPHEMERIS_TYPE":"0","DECAY_DATE":null,"LAUNCH_DATE":"2020-01-29","ECCENTRICITY":"0.00016310","SITE":"AFETR"},{"PERIAPSIS":"545.893","MEAN_MOTION":"15.06407726","TLE_LINE1":"1 45062U 20006U   22334.77687448  .00005330  00000-0  37640-3 0  9994","GP_ID":"219212139","FILE":"3676429","RCS_SIZE":"LARGE","MEAN_ELEMENT_THEORY":"SGP4","EPHEMERIS_TYPE":"0","MEAN_MOTION_DOT":"0.00005330","BSTAR":"0.00037640000000","ARG_OF_PERICENTER":"51.9193","TLE_LINE2":"2 45062  53.0543 250.8018 0001872  51.9193 308.1964 15.06407726156369","ECCENTRICITY":"0.00018720","SITE":"AFETR","DECAY_DATE":null,"LAUNCH_DATE":"2020-01-29","OBJECT_NAME":"STARLINK-1171","COUNTRY_CODE":"US","OBJECT_ID":"2020-006U","INCLINATION":"53.0543","REV_AT_EPOCH":"15636","PERIOD":"95.592","RA_OF_ASC_NODE":"250.8018","CENTER_NAME":"EARTH","TIME_SYSTEM":"UTC","MEAN_ANOMALY":"308.1964","SEMIMAJOR_AXIS":"6925.325","MEAN_MOTION_DDOT":"0.0000000000000","APOAPSIS":"548.486","EPOCH":"2022-11-30T18:38:41.955072","CLASSIFICATION_TYPE":"U","NORAD_CAT_ID":"45062","ELEMENT_SET_NO":"999","OBJECT_TYPE":"PAYLOAD","REF_FRAME":"TEME"},{"NORAD_CAT_ID":"45064","ELEMENT_SET_NO":"999","REF_FRAME":"TEME","OBJECT_TYPE":"PAYLOAD","CLASSIFICATION_TYPE":"U","EPOCH":"2022-11-30T18:57:15.952608","SEMIMAJOR_AXIS":"6925.359","MEAN_MOTION_DDOT":"0.0000000000000","APOAPSIS":"548.262","MEAN_ANOMALY":"296.0929","PERIOD":"95.592","REV_AT_EPOCH":"15664","RA_OF_ASC_NODE":"230.7424","CENTER_NAME":"EARTH","TIME_SYSTEM":"UTC","OBJECT_ID":"2020-006W","COUNTRY_CODE":"US","INCLINATION":"53.0538","OBJECT_NAME":"STARLINK-1133","DECAY_DATE":null,"LAUNCH_DATE":"2020-01-29","ECCENTRICITY":"0.00014980","SITE":"AFETR","MEAN_MOTION_DOT":"0.00001046","ARG_OF_PERICENTER":"64.0214","BSTAR":"0.00008914600000","TLE_LINE2":"2 45064  53.0538 230.7424 0001498  64.0214 296.0929 15.06396485156642","MEAN_ELEMENT_THEORY":"SGP4","EPHEMERIS_TYPE":"0","FILE":"3676429","RCS_SIZE":"LARGE","TLE_LINE1":"1 45064U 20006W   22334.78976797  .00001046  00000-0  89146-4 0  9994","GP_ID":"219212890","MEAN_MOTION":"15.06396485","PERIAPSIS":"546.187"}];
